{
  "type": "FeatureCollection",
  "features": [
    {
      "type": "Feature",
      "properties": {
        "norad_id": 34022,
        "name": "COSMOS 2251 DEB",
        "group": "cosmos-2251-debris",
        "lat": 67.79529844270341,
        "lon": 20.84955283725854,
        "alt_km": 770.1481654797008,
        "timestamp": "2025-12-26T13:39:19.373463+00:00",
        "meta_object_name": "COSMOS 2251 DEB",
        "meta_object_id": "1993-036HH",
        "meta_epoch": "2025-12-26T03:52:05.044800",
        "meta_mean_motion": 14.38981592,
        "meta_eccentricity": 0.00230906,
        "meta_inclination": 74.0534,
        "meta_ra_of_asc_node": 246.0652,
        "meta_arg_of_pericenter": 308.9146,
        "meta_mean_anomaly": 204.8914,
        "meta_ephemeris_type": 0,
        "meta_classification_type": "U",
        "meta_norad_cat_id": 34022,
        "meta_element_set_no": 999,
        "meta_rev_at_epoch": 88388,
        "meta_bstar": 0.00019100519,
        "meta_mean_motion_dot": 5.65e-06,
        "meta_mean_motion_ddot": 0,
        "tle_line1": "1 34022U 93036HH  25360.16116950  .00000565  00000+0  19101-3 0  9997",
        "tle_line2": "2 34022  74.0534 246.0652 0023090 308.9146 204.8914 14.38981592883889"
      },
      "geometry": {
        "type": "Point",
        "coordinates": [
          20.84955283725854,
          67.79529844270341
        ]
      }
    },
    {
      "type": "Feature",
      "properties": {
        "norad_id": 34023,
        "name": "COSMOS 2251 DEB",
        "group": "cosmos-2251-debris",
        "lat": 68.34768985268828,
        "lon": -0.04033096650242081,
        "alt_km": 760.6088398989314,
        "timestamp": "2025-12-26T13:39:19.373474+00:00",
        "meta_object_name": "COSMOS 2251 DEB",
        "meta_object_id": "1993-036HJ",
        "meta_epoch": "2025-12-26T02:12:27.707040",
        "meta_mean_motion": 14.40585764,
        "meta_eccentricity": 0.00189342,
        "meta_inclination": 74.0237,
        "meta_ra_of_asc_node": 227.033,
        "meta_arg_of_pericenter": 320.8602,
        "meta_mean_anomaly": 191.0787,
        "meta_ephemeris_type": 0,
        "meta_classification_type": "U",
        "meta_norad_cat_id": 34023,
        "meta_element_set_no": 999,
        "meta_rev_at_epoch": 88406,
        "meta_bstar": 0.00025125652,
        "meta_mean_motion_dot": 7.76e-06,
        "meta_mean_motion_ddot": 0,
        "tle_line1": "1 34023U 93036HJ  25360.09198735  .00000776  00000+0  25126-3 0  9999",
        "tle_line2": "2 34023  74.0237 227.0330 0018934 320.8602 191.0787 14.40585764884063"
      },
      "geometry": {
        "type": "Point",
        "coordinates": [
          -0.04033096650242081,
          68.34768985268828
        ]
      }
    },
    {
      "type": "Feature",
      "properties": {
        "norad_id": 34024,
        "name": "COSMOS 2251 DEB",
        "group": "cosmos-2251-debris",
        "lat": -35.11909333391377,
        "lon": 122.25202850420845,
        "alt_km": 787.7323109181762,
        "timestamp": "2025-12-26T13:39:19.373484+00:00",
        "meta_object_name": "COSMOS 2251 DEB",
        "meta_object_id": "1993-036HK",
        "meta_epoch": "2025-12-26T06:31:17.936832",
        "meta_mean_motion": 14.35411232,
        "meta_eccentricity": 0.00216172,
        "meta_inclination": 74.0471,
        "meta_ra_of_asc_node": 291.1909,
        "meta_arg_of_pericenter": 339.1187,
        "meta_mean_anomaly": 142.3876,
        "meta_ephemeris_type": 0,
        "meta_classification_type": "U",
        "meta_norad_cat_id": 34024,
        "meta_element_set_no": 999,
        "meta_rev_at_epoch": 88218,
        "meta_bstar": 0.0002041213,
        "meta_mean_motion_dot": 5.61e-06,
        "meta_mean_motion_ddot": 0,
        "tle_line1": "1 34024U 93036HK  25360.27173538  .00000561  00000+0  20412-3 0  9999",
        "tle_line2": "2 34024  74.0471 291.1909 0021617 339.1187 142.3876 14.35411232882182"
      },
      "geometry": {
        "type": "Point",
        "coordinates": [
          122.25202850420845,
          -35.11909333391377
        ]
      }
    },
    {
      "type": "Feature",
      "properties": {
        "norad_id": 34026,
        "name": "COSMOS 2251 DEB",
        "group": "cosmos-2251-debris",
        "lat": -38.371382916549685,
        "lon": 147.62605294131492,
        "alt_km": 815.3833596824197,
        "timestamp": "2025-12-26T13:39:19.373494+00:00",
        "meta_object_name": "COSMOS 2251 DEB",
        "meta_object_id": "1993-036HM",
        "meta_epoch": "2025-12-25T00:00:06.887808",
        "meta_mean_motion": 13.65323017,
        "meta_eccentricity": 0.0349583,
        "meta_inclination": 73.7668,
        "meta_ra_of_asc_node": 316.8973,
        "meta_arg_of_pericenter": 185.0257,
        "meta_mean_anomaly": 244.2207,
        "meta_ephemeris_type": 0,
        "meta_classification_type": "U",
        "meta_norad_cat_id": 34026,
        "meta_element_set_no": 999,
        "meta_rev_at_epoch": 83699,
        "meta_bstar": 0.00042875556,
        "meta_mean_motion_dot": 5.06e-06,
        "meta_mean_motion_ddot": 0,
        "tle_line1": "1 34026U 93036HM  25359.00007972  .00000506  00000+0  42876-3 0  9995",
        "tle_line2": "2 34026  73.7668 316.8973 0349583 185.0257 244.2207 13.65323017836998"
      },
      "geometry": {
        "type": "Point",
        "coordinates": [
          147.62605294131492,
          -38.371382916549685
        ]
      }
    },
    {
      "type": "Feature",
      "properties": {
        "norad_id": 34028,
        "name": "COSMOS 2251 DEB",
        "group": "cosmos-2251-debris",
        "lat": 3.2166562230047338,
        "lon": 145.11740517905312,
        "alt_km": 1057.5858043394055,
        "timestamp": "2025-12-26T13:39:19.373505+00:00",
        "meta_object_name": "COSMOS 2251 DEB",
        "meta_object_id": "1993-036HP",
        "meta_epoch": "2025-12-26T06:06:07.572384",
        "meta_mean_motion": 13.20634714,
        "meta_eccentricity": 0.0543469,
        "meta_inclination": 73.884,
        "meta_ra_of_asc_node": 326.5307,
        "meta_arg_of_pericenter": 102.0525,
        "meta_mean_anomaly": 12.8057,
        "meta_ephemeris_type": 0,
        "meta_classification_type": "U",
        "meta_norad_cat_id": 34028,
        "meta_element_set_no": 999,
        "meta_rev_at_epoch": 81186,
        "meta_bstar": 0.00058686882,
        "meta_mean_motion_dot": 5.02e-06,
        "meta_mean_motion_ddot": 0,
        "tle_line1": "1 34028U 93036HP  25360.25425431  .00000502  00000+0  58687-3 0  9993",
        "tle_line2": "2 34028  73.8840 326.5307 0543469 102.0525  12.8057 13.20634714811869"
      },
      "geometry": {
        "type": "Point",
        "coordinates": [
          145.11740517905312,
          3.2166562230047338
        ]
      }
    },
    {
      "type": "Feature",
      "properties": {
        "norad_id": 34031,
        "name": "COSMOS 2251 DEB",
        "group": "cosmos-2251-debris",
        "lat": 4.425650449519239,
        "lon": -71.97849628390115,
        "alt_km": 686.1580064574637,
        "timestamp": "2025-12-26T13:39:19.373516+00:00",
        "meta_object_name": "COSMOS 2251 DEB",
        "meta_object_id": "1993-036HS",
        "meta_epoch": "2025-12-26T03:15:28.497600",
        "meta_mean_motion": 14.5984019,
        "meta_eccentricity": 0.00228376,
        "meta_inclination": 74.013,
        "meta_ra_of_asc_node": 110.1202,
        "meta_arg_of_pericenter": 230.0388,
        "meta_mean_anomaly": 189.5871,
        "meta_ephemeris_type": 0,
        "meta_classification_type": "U",
        "meta_norad_cat_id": 34031,
        "meta_element_set_no": 999,
        "meta_rev_at_epoch": 88761,
        "meta_bstar": 0.0012993964,
        "meta_mean_motion_dot": 6.212e-05,
        "meta_mean_motion_ddot": 0,
        "tle_line1": "1 34031U 93036HS  25360.13574650  .00006212  00000+0  12994-2 0  9996",
        "tle_line2": "2 34031  74.0130 110.1202 0022837 230.0388 189.5871 14.59840190887611"
      },
      "geometry": {
        "type": "Point",
        "coordinates": [
          -71.97849628390115,
          4.425650449519239
        ]
      }
    },
    {
      "type": "Feature",
      "properties": {
        "norad_id": 34035,
        "name": "COSMOS 2251 DEB",
        "group": "cosmos-2251-debris",
        "lat": -44.21965926598946,
        "lon": -53.01133181727607,
        "alt_km": 693.2603599555096,
        "timestamp": "2025-12-26T13:39:19.373527+00:00",
        "meta_object_name": "COSMOS 2251 DEB",
        "meta_object_id": "1993-036HW",
        "meta_epoch": "2025-12-26T02:53:03.375744",
        "meta_mean_motion": 14.52117013,
        "meta_eccentricity": 0.00453041,
        "meta_inclination": 74.0662,
        "meta_ra_of_asc_node": 323.9736,
        "meta_arg_of_pericenter": 323.0556,
        "meta_mean_anomaly": 165.4295,
        "meta_ephemeris_type": 0,
        "meta_classification_type": "U",
        "meta_norad_cat_id": 34035,
        "meta_element_set_no": 999,
        "meta_rev_at_epoch": 88160,
        "meta_bstar": 0.0018301769,
        "meta_mean_motion_dot": 7.491e-05,
        "meta_mean_motion_ddot": 0,
        "tle_line1": "1 34035U 93036HW  25360.12017796  .00007491  00000+0  18302-2 0  9991",
        "tle_line2": "2 34035  74.0662 323.9736 0045304 323.0556 165.4295 14.52117013881605"
      },
      "geometry": {
        "type": "Point",
        "coordinates": [
          -53.01133181727607,
          -44.21965926598946
        ]
      }
    }
  ]
}